{
  "type": "FeatureCollection",
  "features": [
    {
      "type": "Feature",
      "properties": {
        "norad_id": 31005,
        "name": "FENGYUN 1C DEB",
        "group": "fengyun-1c-debris",
        "lat": 43.59340779057539,
        "lon": -48.53629949068475,
        "alt_km": 1080.9176629409712,
        "timestamp": "2025-12-15T15:53:20.131704+00:00",
        "meta_object_name": "FENGYUN 1C DEB",
        "meta_object_id": "1999-025BCX",
        "meta_epoch": "2025-12-14T20:52:14.335968",
        "meta_mean_motion": 13.83285096,
        "meta_eccentricity": 0.01806535,
        "meta_inclination": 98.6129,
        "meta_ra_of_asc_node": 122.4413,
        "meta_arg_of_pericenter": 319.5816,
        "meta_mean_anomaly": 192.0559,
        "meta_ephemeris_type": 0,
        "meta_classification_type": "U",
        "meta_norad_cat_id": 31005,
        "meta_element_set_no": 999,
        "meta_rev_at_epoch": 94310,
        "meta_bstar": 0.0012186171,
        "meta_mean_motion_dot": 1.477e-05,
        "meta_mean_motion_ddot": 0,
        "tle_line1": "1 31005U 99025BCX 25348.86961037  .00001477  00000+0  12186-2 0  9994",
        "tle_line2": "2 31005  98.6129 122.4413 0180653 319.5816 192.0559 13.83285096943102"
      },
      "geometry": {
        "type": "Point",
        "coordinates": [
          -48.53629949068475,
          43.59340779057539
        ]
      }
    },
    {
      "type": "Feature",
      "properties": {
        "norad_id": 31007,
        "name": "FENGYUN 1C DEB",
        "group": "fengyun-1c-debris",
        "lat": -81.22015878999677,
        "lon": 48.40883560874828,
        "alt_km": 725.0342526465984,
        "timestamp": "2025-12-15T15:53:20.131713+00:00",
        "meta_object_name": "FENGYUN 1C DEB",
        "meta_object_id": "1999-025BCZ",
        "meta_epoch": "2025-12-14T22:10:30.030816",
        "meta_mean_motion": 14.58699131,
        "meta_eccentricity": 0.00672513,
        "meta_inclination": 98.0875,
        "meta_ra_of_asc_node": 340.6692,
        "meta_arg_of_pericenter": 31.3824,
        "meta_mean_anomaly": 329.1361,
        "meta_ephemeris_type": 0,
        "meta_classification_type": "U",
        "meta_norad_cat_id": 31007,
        "meta_element_set_no": 999,
        "meta_rev_at_epoch": 98126,
        "meta_bstar": 0.0015177062,
        "meta_mean_motion_dot": 7.262e-05,
        "meta_mean_motion_ddot": 0,
        "tle_line1": "1 31007U 99025BCZ 25348.92395869  .00007262  00000+0  15177-2 0  9998",
        "tle_line2": "2 31007  98.0875 340.6692 0067251  31.3824 329.1361 14.58699131981260"
      },
      "geometry": {
        "type": "Point",
        "coordinates": [
          48.40883560874828,
          -81.22015878999677
        ]
      }
    },
    {
      "type": "Feature",
      "properties": {
        "norad_id": 31009,
        "name": "FENGYUN 1C DEB",
        "group": "fengyun-1c-debris",
        "lat": -66.63014506027298,
        "lon": 6.660936178188477,
        "alt_km": 881.9412433598573,
        "timestamp": "2025-12-15T15:53:20.131722+00:00",
        "meta_object_name": "FENGYUN 1C DEB",
        "meta_object_id": "1999-025BDB",
        "meta_epoch": "2025-12-14T23:11:59.819712",
        "meta_mean_motion": 14.0036528,
        "meta_eccentricity": 0.00529129,
        "meta_inclination": 98.8972,
        "meta_ra_of_asc_node": 344.7302,
        "meta_arg_of_pericenter": 230.9436,
        "meta_mean_anomaly": 156.5904,
        "meta_ephemeris_type": 0,
        "meta_classification_type": "U",
        "meta_norad_cat_id": 31009,
        "meta_element_set_no": 999,
        "meta_rev_at_epoch": 95892,
        "meta_bstar": 0.00012428162,
        "meta_mean_motion_dot": 1.43e-06,
        "meta_mean_motion_ddot": 0,
        "tle_line1": "1 31009U 99025BDB 25348.96666458  .00000143  00000+0  12428-3 0  9997",
        "tle_line2": "2 31009  98.8972 344.7302 0052912 230.9436 156.5904 14.00365280958929"
      },
      "geometry": {
        "type": "Point",
        "coordinates": [
          6.660936178188477,
          -66.63014506027298
        ]
      }
    },
    {
      "type": "Feature",
      "properties": {
        "norad_id": 31010,
        "name": "FENGYUN 1C DEB",
        "group": "fengyun-1c-debris",
        "lat": -74.70071088408827,
        "lon": -91.75654992912578,
        "alt_km": 807.1672911464293,
        "timestamp": "2025-12-15T15:53:20.131731+00:00",
        "meta_object_name": "FENGYUN 1C DEB",
        "meta_object_id": "1999-025BDC",
        "meta_epoch": "2025-12-13T08:46:34.415040",
        "meta_mean_motion": 14.25824069,
        "meta_eccentricity": 0.01132946,
        "meta_inclination": 101.7244,
        "meta_ra_of_asc_node": 134.5693,
        "meta_arg_of_pericenter": 352.8328,
        "meta_mean_anomaly": 7.1217,
        "meta_ephemeris_type": 0,
        "meta_classification_type": "U",
        "meta_norad_cat_id": 31010,
        "meta_element_set_no": 999,
        "meta_rev_at_epoch": 95638,
        "meta_bstar": 0.0055012585,
        "meta_mean_motion_dot": 0.00013958,
        "meta_mean_motion_ddot": 0,
        "tle_line1": "1 31010U 99025BDC 25347.36567610  .00013958  00000+0  55013-2 0  9996",
        "tle_line2": "2 31010 101.7244 134.5693 0113294 352.8328   7.1217 14.25824069956388"
      },
      "geometry": {
        "type": "Point",
        "coordinates": [
          -91.75654992912578,
          -74.70071088408827
        ]
      }
    },
    {
      "type": "Feature",
      "properties": {
        "norad_id": 31012,
        "name": "FENGYUN 1C DEB",
        "group": "fengyun-1c-debris",
        "lat": 24.829409363590862,
        "lon": -116.34285991917572,
        "alt_km": 844.1867827337437,
        "timestamp": "2025-12-15T15:53:20.131742+00:00",
        "meta_object_name": "FENGYUN 1C DEB",
        "meta_object_id": "1999-025BDE",
        "meta_epoch": "2025-12-14T16:29:13.275744",
        "meta_mean_motion": 14.2786507,
        "meta_eccentricity": 0.00813491,
        "meta_inclination": 98.9116,
        "meta_ra_of_asc_node": 246.8259,
        "meta_arg_of_pericenter": 245.6993,
        "meta_mean_anomaly": 169.5971,
        "meta_ephemeris_type": 0,
        "meta_classification_type": "U",
        "meta_norad_cat_id": 31012,
        "meta_element_set_no": 999,
        "meta_rev_at_epoch": 97775,
        "meta_bstar": 0.0002211918,
        "meta_mean_motion_dot": 5.2e-06,
        "meta_mean_motion_ddot": 0,
        "tle_line1": "1 31012U 99025BDE 25348.68695921  .00000520  00000+0  22119-3 0  9994",
        "tle_line2": "2 31012  98.9116 246.8259 0081349 245.6993 169.5971 14.27865070977755"
      },
      "geometry": {
        "type": "Point",
        "coordinates": [
          -116.34285991917572,
          24.829409363590862
        ]
      }
    },
    {
      "type": "Feature",
      "properties": {
        "norad_id": 31014,
        "name": "FENGYUN 1C DEB",
        "group": "fengyun-1c-debris",
        "lat": -26.53937649333817,
        "lon": -30.351573381126567,
        "alt_km": 958.6803088579245,
        "timestamp": "2025-12-15T15:53:20.131751+00:00",
        "meta_object_name": "FENGYUN 1C DEB",
        "meta_object_id": "1999-025BDG",
        "meta_epoch": "2025-12-14T21:16:31.516896",
        "meta_mean_motion": 13.98492485,
        "meta_eccentricity": 0.00878957,
        "meta_inclination": 98.8691,
        "meta_ra_of_asc_node": 324.4258,
        "meta_arg_of_pericenter": 187.4548,
        "meta_mean_anomaly": 202.7471,
        "meta_ephemeris_type": 0,
        "meta_classification_type": "U",
        "meta_norad_cat_id": 31014,
        "meta_element_set_no": 999,
        "meta_rev_at_epoch": 95866,
        "meta_bstar": 0.00018808423,
        "meta_mean_motion_dot": 2.36e-06,
        "meta_mean_motion_ddot": 0,
        "tle_line1": "1 31014U 99025BDG 25348.88647589  .00000236  00000+0  18808-3 0  9999",
        "tle_line2": "2 31014  98.8691 324.4258 0087895 187.4548 202.7471 13.98492485958664"
      },
      "geometry": {
        "type": "Point",
        "coordinates": [
          -30.351573381126567,
          -26.53937649333817
        ]
      }
    },
    {
      "type": "Feature",
      "properties": {
        "norad_id": 31016,
        "name": "FENGYUN 1C DEB",
        "group": "fengyun-1c-debris",
        "lat": 61.74192457065617,
        "lon": -10.627154562598442,
        "alt_km": 858.0705209839671,
        "timestamp": "2025-12-15T15:53:20.131760+00:00",
        "meta_object_name": "FENGYUN 1C DEB",
        "meta_object_id": "1999-025BDJ",
        "meta_epoch": "2025-12-14T18:04:28.400736",
        "meta_mean_motion": 14.30497937,
        "meta_eccentricity": 0.01119791,
        "meta_inclination": 98.4364,
        "meta_ra_of_asc_node": 4.5195,
        "meta_arg_of_pericenter": 268.1605,
        "meta_mean_anomaly": 156.1968,
        "meta_ephemeris_type": 0,
        "meta_classification_type": "U",
        "meta_norad_cat_id": 31016,
        "meta_element_set_no": 999,
        "meta_rev_at_epoch": 97499,
        "meta_bstar": 0.00033619297,
        "meta_mean_motion_dot": 8.93e-06,
        "meta_mean_motion_ddot": 0,
        "tle_line1": "1 31016U 99025BDJ 25348.75310649  .00000893  00000+0  33619-3 0  9997",
        "tle_line2": "2 31016  98.4364   4.5195 0111979 268.1605 156.1968 14.30497937974998"
      },
      "geometry": {
        "type": "Point",
        "coordinates": [
          -10.627154562598442,
          61.74192457065617
        ]
      }
    }
  ]
}